NORAD_CAT_ID,OBJECT_NAME,OBJECT_TYPE,EPOCH,MEAN_MOTION,ECCENTRICITY,INCLINATION,RA_OF_ASC_NODE,ARG_OF_PERICENTER,MEAN_ANOMALY,BSTAR,MEAN_MOTION_DOT,MEAN_MOTION_DDOT,TLE_LINE0,TLE_LINE1,TLE_LINE2,SEMIMAJOR_AXIS,PERIOD,APOGEE,PERIGEE,DECAYED
53706.0,STARLINK-4716,PAYLOAD,2023-11-11 10:19:15,15.08835854,0.0001484,53.2185,96.6594,102.6934,257.4224,5.8491e-05,6.43e-06,0.0,0 STARLINK-4716,1 53706U 22107G   23315.43003768  .00000643  00000-0  58491-4 0  9992,2 53706  53.2185  96.6594 0001484 102.6934 257.4224 15.08835854 65899,6917.893,95.438,540.785,538.731,0.0
53706.0,STARLINK-4716,PAYLOAD,2023-11-11 13:30:01,15.0883585,0.0001472,53.2185,96.0647,102.8417,257.2739,5.0997e-05,5.24e-06,0.0,0 STARLINK-4716,1 53706U 22107G   23315.56251781  .00000524  00000-0  50997-4 0  9997,2 53706  53.2185  96.0647 0001472 102.8417 257.2739 15.08835850 66668,6917.893,95.438,540.776,538.74,0.0
53706.0,STARLINK-4716,PAYLOAD,2023-11-11 16:40:47,15.08836103,0.0001444,53.2185,95.4694,100.047,260.0685,4.1173e-05,3.67e-06,0.0,0 STARLINK-4716,1 53706U 22107G   23315.69499785  .00000367  00000-0  41173-4 0  9990,2 53706  53.2185  95.4694 0001444 100.0470 260.0685 15.08836103 66687,6917.892,95.438,540.756,538.758,0.0
53706.0,STARLINK-4716,PAYLOAD,2023-11-12 13:20:48,15.08841371,0.000131,53.2182,91.6025,94.1378,265.9763,4.4203e-05,4.16e-06,0.0,0 STARLINK-4716,1 53706U 22107G   23316.55611567  .00000416  00000-0  44203-4 0  9992,2 53706  53.2182  91.6025 0001310  94.1378 265.9763 15.08841371 66811,6917.876,95.437,540.647,538.835,0.0
53706.0,STARLINK-4716,PAYLOAD,2023-11-12 18:06:57,15.08846305,0.0001384,53.2186,90.7113,97.1406,262.9744,8.6166e-05,1.084e-05,0.0,0 STARLINK-4716,1 53706U 22107G   23316.75483117  .00001084  00000-0  86166-4 0  9998,2 53706  53.2186  90.7113 0001384  97.1406 262.9744 15.08846305 66097,6917.861,95.437,540.684,538.769,0.0
53706.0,STARLINK-4716,PAYLOAD,2023-11-13 08:25:26,15.08838746,0.0001397,53.2188,88.0347,96.2759,263.8393,8.7925e-05,1.112e-05,0.0,0 STARLINK-4716,1 53706U 22107G   23317.35099591  .00001112  00000-0  87925-4 0  9990,2 53706  53.2188  88.0347 0001397  96.2759 263.8393 15.08838746 66183,6917.884,95.438,540.716,538.783,0.0
53706.0,STARLINK-4716,PAYLOAD,2023-11-13 13:11:35,15.08838989,0.0001411,53.2189,87.1424,96.6347,263.4805,8.1748e-05,1.013e-05,0.0,0 STARLINK-4716,1 53706U 22107G   23317.54971599  .00001013  00000-0  81748-4 0  9995,2 53706  53.2189  87.1424 0001411  96.6347 263.4805 15.08838989 66963,6917.883,95.438,540.725,538.772,0.0
53706.0,STARLINK-4716,PAYLOAD,2023-11-14 14:37:46,15.08833564,0.0001304,53.219,82.3855,90.8254,269.2887,-1.2815e-05,-4.92e-06,0.0,0 STARLINK-4716,1 53706U 22107G   23318.60956305 -.00000492  00000-0 -12815-4 0  9992,2 53706  53.2190  82.3855 0001304  90.8254 269.2887 15.08833564 67121,6917.9,95.438,540.667,538.863,0.0
53706.0,STARLINK-4716,PAYLOAD,2023-11-15 08:07:00,15.08839577,0.0001436,53.2167,79.1121,87.9705,272.1452,2.1248e-05,5e-07,0.0,0 STARLINK-4716,1 53706U 22107G   23319.33819925  .00000050  00000-0  21248-4 0  9997,2 53706  53.2167  79.1121 0001436  87.9705 272.1452 15.08839577 66488,6917.882,95.438,540.74,538.753,0.0
53706.0,STARLINK-4716,PAYLOAD,2023-11-15 12:53:09,15.08840734,0.0001464,53.2163,78.2197,94.0472,266.0687,3.6564e-05,2.94e-06,0.0,0 STARLINK-4716,1 53706U 22107G   23319.53691791  .00000294  00000-0  36564-4 0  9995,2 53706  53.2163  78.2197 0001464  94.0472 266.0687 15.08840734 67264,6917.878,95.438,540.756,538.73,0.0
53706.0,STARLINK-4716,PAYLOAD,2023-11-16 17:30:06,15.08839189,0.0001332,53.2171,72.8673,92.6441,267.4704,7.9262e-05,9.74e-06,0.0,0 STARLINK-4716,1 53706U 22107G   23320.72923786  .00000974  00000-0  79262-4 0  9997,2 53706  53.2171  72.8673 0001332  92.6441 267.4704 15.08839189 66699,6917.883,95.438,540.669,538.826,0.0
53706.0,STARLINK-4716,PAYLOAD,2023-11-17 14:10:07,15.08839138,0.0001345,53.2178,69.001,90.1314,269.9832,1.6188e-05,-3e-07,0.0,0 STARLINK-4716,1 53706U 22107G   23321.59036105 -.00000030  00000-0  16188-4 0  9995,2 53706  53.2178  69.0010 0001345  90.1314 269.9832 15.08839138 67576,6917.883,95.438,540.678,538.818,0.0
53706.0,STARLINK-4716,PAYLOAD,2023-11-17 17:20:53,15.08839017,0.0001343,53.2178,68.4064,89.8918,270.2228,1.5009e-05,-4.9e-07,0.0,0 STARLINK-4716,1 53706U 22107G   23321.72284117 -.00000049  00000-0  15009-4 0  9999,2 53706  53.2178  68.4064 0001343  89.8918 270.2228 15.08839017 67593,6917.883,95.438,540.677,538.819,0.0
53706.0,STARLINK-4716,PAYLOAD,2023-11-17 23:42:26,15.08836879,0.000139,53.2186,67.2169,89.2286,270.8865,-2.8015e-06,-3.33e-06,0.0,0 STARLINK-4716,1 53706U 22107G   23321.98780327 -.00000333  00000-0 -28015-5 0  9990,2 53706  53.2186  67.2169 0001390  89.2286 270.8865 15.08836879 66886,6917.89,95.438,540.717,538.793,0.0
53706.0,STARLINK-4716,PAYLOAD,2023-11-18 14:00:53,15.08858859,0.0001493,53.2189,64.5417,86.8384,273.2779,-0.00021398,-3.694e-05,0.0,0 STARLINK-4716,1 53706U 22107G   23322.58395491 -.00003694  00000-0 -21398-3 0  9999,2 53706  53.2189  64.5417 0001493  86.8384 273.2779 15.08858859 67728,6917.823,95.436,540.721,538.655,0.0
53706.0,STARLINK-4716,PAYLOAD,2023-11-18 23:33:13,15.08832642,0.0001363,53.2188,62.7579,89.7805,270.3343,0.00011527,1.547e-05,0.0,0 STARLINK-4716,1 53706U 22107G   23322.98140325  .00001547  00000-0  11527-3 0  9993,2 53706  53.2188  62.7579 0001363  89.7805 270.3343 15.08832642 67033,6917.903,95.438,540.711,538.825,0.0
53706.0,STARLINK-4716,PAYLOAD,2023-11-19 13:51:41,15.08840678,0.0001396,53.2193,60.0826,92.1867,267.9285,4.9823e-05,5.05e-06,0.0,0 STARLINK-4716,1 53706U 22107G   23323.57756183  .00000505  00000-0  49823-4 0  9998,2 53706  53.2193  60.0826 0001396  92.1867 267.9285 15.08840678 67874,6917.878,95.438,540.709,538.778,0.0
53706.0,STARLINK-4716,PAYLOAD,2023-11-20 13:42:28,15.0883907,0.0001515,53.2193,55.6229,99.5902,260.5262,4.0658e-05,3.59e-06,0.0,0 STARLINK-4716,1 53706U 22107G   23324.57116444  .00000359  00000-0  40658-4 0  9993,2 53706  53.2193  55.6229 0001515  99.5902 260.5262 15.08839070 68021,6917.883,95.438,540.796,538.7,0.0
53706.0,STARLINK-4716,PAYLOAD,2023-11-20 18:28:37,15.08855599,0.0001678,53.2189,54.7294,100.058,260.0602,-3.7413e-05,-8.84e-06,0.0,0 STARLINK-4716,1 53706U 22107G   23324.76987506 -.00000884  00000-0 -37413-4 0  9999,2 53706  53.2189  54.7294 0001678 100.0580 260.0602 15.08855599 67305,6917.833,95.437,540.859,538.537,0.0
53706.0,STARLINK-4716,PAYLOAD,2023-11-21 10:22:29,15.08840984,0.0001781,53.2181,51.7536,94.1001,266.0194,5.8841e-05,6.49e-06,0.0,0 STARLINK-4716,1 53706U 22107G   23325.43228198  .00000649  00000-0  58841-4 0  9994,2 53706  53.2181  51.7536 0001781  94.1001 266.0194 15.08840984 67404,6917.877,95.437,540.974,538.51,0.0
53706.0,STARLINK-4716,PAYLOAD,2023-11-21 13:33:15,15.08845021,0.0001608,53.2194,51.1622,74.7902,285.3268,3.3743e-05,2.49e-06,0.0,0 STARLINK-4716,1 53706U 22107G   23325.56476201  .00000249  00000-0  33743-4 0  9998,2 53706  53.2194  51.1622 0001608  74.7902 285.3268 15.08845021 68178,6917.865,95.437,540.842,538.618,0.0
53706.0,STARLINK-4716,PAYLOAD,2023-11-22 11:48:38,15.08848944,0.0001722,53.2191,46.9999,70.0124,290.1053,7.6747e-05,9.34e-06,0.0,0 STARLINK-4716,1 53706U 22107G   23326.49211692  .00000934  00000-0  76747-4 0  9994,2 53706  53.2191  46.9999 0001722  70.0124 290.1053 15.08848944 67561,6917.853,95.437,540.909,538.527,0.0
53706.0,STARLINK-4716,PAYLOAD,2023-11-23 11:39:26,15.08839827,0.0001628,53.2195,42.5382,78.0963,282.0212,-1.0428e-05,-4.54e-06,0.0,0 STARLINK-4716,1 53706U 22107G   23327.48572501 -.00000454  00000-0 -10428-4 0  9996,2 53706  53.2195  42.5382 0001628  78.0963 282.0212 15.08839827 67711,6917.881,95.438,540.872,538.62,0.0
53706.0,STARLINK-4716,PAYLOAD,2023-11-24 11:30:14,15.08837793,0.000172,53.2195,38.082,104.1192,255.9991,-0.00011558,-2.127e-05,0.0,0 STARLINK-4716,1 53706U 22107G   23328.47933360 -.00002127  00000-0 -11558-3 0  9993,2 53706  53.2195  38.0820 0001720 104.1192 255.9991 15.08837793 67865,6917.887,95.438,540.942,538.562,0.0
53706.0,STARLINK-4716,PAYLOAD,2023-11-24 14:41:00,15.08843867,0.0001694,53.219,37.4785,90.5325,269.5861,-0.0001809,-3.166e-05,0.0,0 STARLINK-4716,1 53706U 22107G   23328.61181216 -.00003166  00000-0 -18090-3 0  9996,2 53706  53.2190  37.4785 0001694  90.5325 269.5861 15.08843867 68631,6917.869,95.437,540.905,538.562,0.0
53706.0,STARLINK-4716,PAYLOAD,2023-11-25 11:20:59,15.0885188,0.0001559,53.2189,33.6127,96.8808,263.2362,0.00028358,4.229e-05,0.0,0 STARLINK-4716,1 53706U 22107G   23329.47291473  .00004229  00000-0  28358-3 0  9995,2 53706  53.2189  33.6127 0001559  96.8808 263.2362 15.08851880 68767,6917.844,95.437,540.788,538.631,0.0
53706.0,STARLINK-4716,PAYLOAD,2023-11-25 14:31:45,15.08853514,0.0001577,53.219,33.0182,98.9546,261.1625,0.00028901,4.316e-05,0.0,0 STARLINK-4716,1 53706U 22107G   23329.60539310  .00004316  00000-0  28901-3 0  9996,2 53706  53.2190  33.0182 0001577  98.9546 261.1625 15.08853514 68783,6917.839,95.437,540.795,538.613,0.0
53706.0,STARLINK-4716,PAYLOAD,2023-11-26 00:04:05,15.08839727,0.0001162,53.219,31.2353,105.4912,254.6208,0.00010991,1.462e-05,0.0,0 STARLINK-4716,1 53706U 22107G   23330.00284639  .00001462  00000-0  10991-3 0  9992,2 53706  53.2190  31.2353 0001162 105.4912 254.6208 15.08839727 68092,6917.881,95.438,540.55,538.942,0.0
53706.0,STARLINK-4716,PAYLOAD,2023-11-26 09:36:23,15.08858647,0.0001642,53.2197,29.4536,100.3625,259.7553,0.00023603,3.472e-05,0.0,0 STARLINK-4716,1 53706U 22107G   23330.40027009  .00003472  00000-0  23603-3 0  9999,2 53706  53.2197  29.4536 0001642 100.3625 259.7553 15.08858647 68157,6917.823,95.436,540.824,538.552,0.0
53706.0,STARLINK-4716,PAYLOAD,2023-11-27 04:41:03,15.08836362,0.0001563,53.2192,25.883,92.8629,267.2542,-0.00022376,-3.847e-05,0.0,0 STARLINK-4716,1 53706U 22107G   23331.19518158 -.00003847  00000-0 -22376-3 0  9990,2 53706  53.2192  25.8830 0001563  92.8629 267.2542 15.08836362 68275,6917.892,95.438,540.838,538.675,0.0
